LEMUR-2-DEMBITZ         
1 42842U 17042T   26068.47492167  .00020231  00000+0  76561-3 0  9991
2 42842  97.3807 250.9241 0006961  17.1421 343.0051 15.26947128473114
STARLINK-32625          
1 62154U 24224R   26068.27842535  .00036351  00000+0  13231-2 0  9999
2 62154  42.9968 160.7214 0001114 290.1455  69.9277 15.27602483 72302
